[{"OBJECT_NAME":"TYVAK-0130","OBJECT_ID":"2021-041BF","EPOCH":"2026-03-09T11:37:42.710304","MEAN_MOTION":15.26049141,"ECCENTRICITY":0.0008953,"INCLINATION":52.9967,"RA_OF_ASC_NODE":128.603,"ARG_OF_PERICENTER":215.1647,"MEAN_ANOMALY":144.876,"EPHEMERIS_TYPE":0,"CLASSIFICATION_TYPE":"U","NORAD_CAT_ID":48606,"ELEMENT_SET_NO":999,"REV_AT_EPOCH":26515,"BSTAR":0.0003519806,"MEAN_MOTION_DOT":8.857e-5,"MEAN_MOTION_DDOT":0},{"OBJECT_NAME":"STARLINK-33886","OBJECT_ID":"2025-085T","EPOCH":"2026-03-09T06:48:49.690080","MEAN_MOTION":15.27564387,"ECCENTRICITY":0.00013958,"INCLINATION":43.0039,"RA_OF_ASC_NODE":32.7072,"ARG_OF_PERICENTER":276.5494,"MEAN_ANOMALY":83.5198,"EPHEMERIS_TYPE":0,"CLASSIFICATION_TYPE":"U","NORAD_CAT_ID":63681,"ELEMENT_SET_NO":999,"REV_AT_EPOCH":4881,"BSTAR":0.00074586508,"MEAN_MOTION_DOT":0.00020309,"MEAN_MOTION_DDOT":0}]
