TYVAK-0130              
1 48606U 21041BF  26068.48452211  .00008857  00000+0  35198-3 0  9997
2 48606  52.9967 128.6030 0008953 215.1647 144.8760 15.26049141265157
STARLINK-33886          
1 63681U 25085T   26068.28390845  .00020309  00000+0  74587-3 0  9992
2 63681  43.0039  32.7072 0001395 276.5494  83.5198 15.27564387 48814
